NORAD_CAT_ID,OBJECT_NAME,OBJECT_TYPE,EPOCH,MEAN_MOTION,ECCENTRICITY,INCLINATION,RA_OF_ASC_NODE,ARG_OF_PERICENTER,MEAN_ANOMALY,BSTAR,MEAN_MOTION_DOT,MEAN_MOTION_DDOT,TLE_LINE0,TLE_LINE1,TLE_LINE2,SEMIMAJOR_AXIS,PERIOD,APOGEE,PERIGEE,DECAYED
52133.0,STARLINK-3707,PAYLOAD,2022-12-23 02:03:52,15.08834053,0.0002436,53.2182,293.1502,38.4557,321.6608,-4.5401e-05,-1.011e-05,0.0,0 STARLINK-3707,1 52133U 22029AX  22357.08601978 -.00001011  00000-0 -45401-4 0  9990,2 52133  53.2182 293.1502 0002436  38.4557 321.6608 15.08834053 43916,6917.899,95.438,541.4490000000002,538.078,0.0
52133.0,STARLINK-3707,PAYLOAD,2022-12-23 13:11:33,15.08839341,0.0002431,53.2184,291.068,36.7482,323.3676,7.4355e-05,8.95e-06,0.0,0 STARLINK-3707,1 52133U 22029AX  22357.54969257  .00000895  00000-0  74355-4 0  9995,2 52133  53.2184 291.0680 0002431  36.7482 323.3676 15.08839341 43981,6917.882,95.438,541.429,538.066,0.0
52133.0,STARLINK-3707,PAYLOAD,2022-12-24 01:54:37,15.08857008,0.000235,53.2183,288.6896,30.0892,330.0235,0.00011584,1.557e-05,0.0,0 STARLINK-3707,1 52133U 22029AX  22358.07960200  .00001557  00000-0  11584-3 0  9993,2 52133  53.2183 288.6896 0002350  30.0892 330.0235 15.08857008 44069,6917.828,95.436,541.319,538.068,0.0
52133.0,STARLINK-3707,PAYLOAD,2022-12-24 19:23:52,15.08845481,0.0002308,53.2176,285.4174,38.5491,321.5665,0.00012796,1.749e-05,0.0,0 STARLINK-3707,1 52133U 22029AX  22358.80824290  .00001749  00000-0  12796-3 0  9991,2 52133  53.2176 285.4174 0002308  38.5491 321.5665 15.08845481 44172,6917.864000000001,95.437,541.325,538.132,0.0
52133.0,STARLINK-3707,PAYLOAD,2022-12-25 01:45:25,15.08836333,0.0002384,53.2173,284.2283,37.6028,322.5131,3.8812e-05,3.29e-06,0.0,0 STARLINK-3707,1 52133U 22029AX  22359.07321184  .00000329  00000-0  38812-4 0  9996,2 52133  53.2173 284.2283 0002384  37.6028 322.5131 15.08836333 44217,6917.892,95.438,541.406,538.107,0.0
52133.0,STARLINK-3707,PAYLOAD,2022-12-25 04:56:11,15.08836821,0.0002207,53.219,283.6327,30.7173,329.3948,1.7182999999999998e-05,-1.5e-07,0.0,0 STARLINK-3707,1 52133U 22029AX  22359.20569140 -.00000015  00000-0  17183-4 0  9998,2 52133  53.2190 283.6327 0002207  30.7173 329.3948 15.08836821 44232,6917.89,95.438,541.2819999999998,538.2280000000002,0.0
52133.0,STARLINK-3707,PAYLOAD,2022-12-26 04:46:58,15.08846511,0.0002121,53.2186,279.1721,30.1127,329.9986,-8.353600000000001e-05,-1.618e-05,0.0,0 STARLINK-3707,1 52133U 22029AX  22360.19928840 -.00001618  00000-0 -83536-4 0  9990,2 52133  53.2186 279.1721 0002121  30.1127 329.9986 15.08846511 44384,6917.86,95.437,541.193,538.258,0.0
52133.0,STARLINK-3707,PAYLOAD,2022-12-27 03:02:23,15.08826817,0.0002387,53.2188,275.0106,31.8274,328.2862,-2.5508e-05,-6.94e-06,0.0,0 STARLINK-3707,1 52133U 22029AX  22361.12666114 -.00000694  00000-0 -25508-4 0  9995,2 52133  53.2188 275.0106 0002387  31.8274 328.2862 15.08826817 44521,6917.920999999999,95.438,541.437,538.134,0.0
52133.0,STARLINK-3707,PAYLOAD,2022-12-27 10:59:18,15.08839971,0.0002421,53.2182,273.5239,32.674,327.4401,5.6376e-05,6.09e-06,0.0,0 STARLINK-3707,1 52133U 22029AX  22361.45785141  .00000609  00000-0  56376-4 0  9994,2 52133  53.2182 273.5239 0002421  32.6740 327.4401 15.08839971 44571,6917.88,95.438,541.42,538.071,0.0
52133.0,STARLINK-3707,PAYLOAD,2022-12-27 18:56:13,15.08838887,0.0002076,53.2187,272.036,29.6714,330.4396,0.00011798,1.59e-05,0.0,0 STARLINK-3707,1 52133U 22029AX  22361.78904711  .00001590  00000-0  11798-3 0  9994,2 52133  53.2187 272.0360 0002076  29.6714 330.4396 15.08838887 44626,6917.884,95.438,541.185,538.313,0.0
52133.0,STARLINK-3707,PAYLOAD,2022-12-28 04:28:31,15.08855673,0.0002528,53.2182,270.2525,36.6724,323.4441,0.00023805,3.504e-05,0.0,0 STARLINK-3707,1 52133U 22029AX  22362.18647089  .00003504  00000-0  23805-3 0  9990,2 52133  53.2182 270.2525 0002528  36.6724 323.4441 15.08855673 44686,6917.831999999999,95.437,541.446,537.9490000000002,0.0
52133.0,STARLINK-3707,PAYLOAD,2022-12-29 02:43:57,15.08830701,0.0001831,53.218,266.0864,27.8294,332.2796,-3.2126e-05,-7.99e-06,0.0,0 STARLINK-3707,1 52133U 22029AX  22363.11385703 -.00000799  00000-0 -32126-4 0  9998,2 52133  53.2180 266.0864 0001831  27.8294 332.2796 15.08830701 44825,6917.909000000002,95.438,541.04,538.507,0.0
52133.0,STARLINK-3707,PAYLOAD,2022-12-29 10:40:54,15.08818947,0.0002481,53.218,264.601,35.8236,324.2922,-0.00011918,-2.184e-05,0.0,0 STARLINK-3707,1 52133U 22029AX  22363.44507270 -.00002184  00000-0 -11918-3 0  9994,2 52133  53.2180 264.6010 0002481  35.8236 324.2922 15.08818947 44874,6917.945,95.439,541.526,538.0930000000002,0.0
52133.0,STARLINK-3707,PAYLOAD,2022-12-30 02:34:44,15.08841063,0.0002323,53.2176,261.63,33.0169,327.0968,-0.00015722,-2.79e-05,0.0,0 STARLINK-3707,1 52133U 22029AX  22364.10746179 -.00002790  00000-0 -15722-3 0  9991,2 52133  53.2176 261.6300 0002323  33.0169 327.0968 15.08841063 44975,6917.877,95.437,541.349,538.135,0.0
52133.0,STARLINK-3707,PAYLOAD,2022-12-31 02:25:29,15.0885411,0.0002469,53.2176,257.1684,37.1865,322.9297,0.00037167,5.634e-05,0.0,0 STARLINK-3707,1 52133U 22029AX  22365.10103487  .00005634  00000-0  37167-3 0  9996,2 52133  53.2176 257.1684 0002469  37.1865 322.9297 15.08854110 45123,6917.837,95.437,541.41,537.994,0.0
52133.0,STARLINK-3707,PAYLOAD,2022-12-31 10:22:25,15.08846561,0.0002498,53.2182,255.68,39.1073,321.0099,0.00027536,4.098e-05,0.0,0 STARLINK-3707,1 52133U 22029AX  22365.43224099  .00004098  00000-0  27536-3 0  9997,2 52133  53.2182 255.6800 0002498  39.1073 321.0099 15.08846561 45174,6917.86,95.437,541.453,537.997,0.0
52133.0,STARLINK-3707,PAYLOAD,2023-01-01 02:16:18,15.08837487,0.000229,53.2178,252.7075,35.3957,324.7186,-0.00013509,-2.438e-05,0.0,0 STARLINK-3707,1 52133U 22029AX  23001.09465918 -.00002438  00000-0 -13509-3 0  9997,2 52133  53.2178 252.7075 0002290  35.3957 324.7186 15.08837487 45275,6917.888000000001,95.438,541.337,538.169,0.0
52133.0,STARLINK-3707,PAYLOAD,2023-01-01 10:13:14,15.08830993,0.0002273,53.2172,251.2194,39.4618,320.654,-0.00017962,-3.145e-05,0.0,0 STARLINK-3707,1 52133U 22029AX  23001.42586525 -.00003145  00000-0 -17962-3 0  9995,2 52133  53.2172 251.2194 0002273  39.4618 320.6540 15.08830993 45325,6917.908,95.438,541.345,538.2,0.0
52133.0,STARLINK-3707,PAYLOAD,2023-01-01 16:34:47,15.08823423,0.0002316999999999,53.2166,250.0304,45.8853,314.2329,-0.0001839,-3.213e-05,0.0,0 STARLINK-3707,1 52133U 22029AX  23001.69083128 -.00003213  00000-0 -18390-3 0  9997,2 52133  53.2166 250.0304 0002317  45.8853 314.2329 15.08823423 45367,6917.931,95.439,541.399,538.193,0.0
52133.0,STARLINK-3707,PAYLOAD,2023-01-02 02:07:07,15.08818871,0.0002379999999999,53.2167,248.247,43.1442,316.9737,-0.00021729,-3.743e-05,0.0,0 STARLINK-3707,1 52133U 22029AX  23002.08827972 -.00003743  00000-0 -21729-3 0  9992,2 52133  53.2167 248.2470 0002380  43.1442 316.9737 15.08818871 45426,6917.945,95.439,541.456,538.164,0.0
52133.0,STARLINK-3707,PAYLOAD,2023-01-02 22:47:07,15.08826727,0.0002545,53.2163,244.3827,41.0864,319.0319,-3.3679e-05,-8.24e-06,0.0,0 STARLINK-3707,1 52133U 22029AX  23002.94939586 -.00000824  00000-0 -33679-4 0  9997,2 52133  53.2163 244.3827 0002545  41.0864 319.0319 15.08826727 45556,6917.920999999999,95.438,541.547,538.025,0.0
52133.0,STARLINK-3707,PAYLOAD,2023-01-03 01:57:54,15.08815389,0.0002548,53.2157,243.7873,41.328,318.7904,0.00010407,1.367e-05,0.0,0 STARLINK-3707,1 52133U 22029AX  23003.08187934  .00001367  00000-0  10407-3 0  9999,2 52133  53.2157 243.7873 0002548  41.3280 318.7904 15.08815389 45571,6917.956,95.439,541.5830000000002,538.058,0.0
52133.0,STARLINK-3707,PAYLOAD,2023-01-03 16:16:22,15.08823887,0.0002505999999999,53.2162,241.1109,38.1125,322.0044,0.00023144,3.395e-05,0.0,0 STARLINK-3707,1 52133U 22029AX  23003.67803590  .00003395  00000-0  23144-3 0  9992,2 52133  53.2162 241.1109 0002506  38.1125 322.0044 15.08823887 45662,6917.93,95.439,541.528,538.061,0.0
52133.0,STARLINK-3707,PAYLOAD,2023-01-03 22:37:54,15.08831603,0.0002541,53.2164,239.9214,38.5731,321.5442,0.00024443,3.603e-05,0.0,0 STARLINK-3707,1 52133U 22029AX  23003.94299312  .00003603  00000-0  24443-3 0  9998,2 52133  53.2164 239.9214 0002541  38.5731 321.5442 15.08831603 45708,6917.906,95.438,541.529,538.013,0.0
52133.0,STARLINK-3707,PAYLOAD,2023-01-04 08:10:13,15.08832997,0.0002572,53.2164,238.1374,39.9231,320.195,0.00019787,2.862e-05,0.0,0 STARLINK-3707,1 52133U 22029AX  23004.34043649  .00002862  00000-0  19787-3 0  9994,2 52133  53.2164 238.1374 0002572  39.9231 320.1950 15.08832997 45762,6917.901999999999,95.438,541.5459999999998,537.988,0.0
52133.0,STARLINK-3707,PAYLOAD,2023-01-05 00:04:04,15.0884525,0.0002602,53.2163,235.1632,41.0745,319.0442,0.00012499,1.702e-05,0.0,0 STARLINK-3707,1 52133U 22029AX  23005.00283163  .00001702  00000-0  12499-3 0  9990,2 52133  53.2163 235.1632 0002602  41.0745 319.0442 15.08845250 45863,6917.864000000001,95.437,541.529,537.929,0.0
52133.0,STARLINK-3707,PAYLOAD,2023-01-05 08:01:00,15.08836974,0.0002528999999999,53.2169,233.6762,44.6943,315.4253,4.2774e-05,3.92e-06,0.0,0 STARLINK-3707,1 52133U 22029AX  23005.33403935  .00000392  00000-0  42774-4 0  9991,2 52133  53.2169 233.6762 0002529  44.6943 315.4253 15.08836974 45912,6917.89,95.438,541.504,538.005,0.0
52133.0,STARLINK-3707,PAYLOAD,2023-01-05 14:22:34,15.08833967,0.0002848,53.2167,232.4866,50.8961,309.2284,-4.151899999999999e-05,-9.49e-06,0.0,0 STARLINK-3707,1 52133U 22029AX  23005.59900571 -.00000949  00000-0 -41519-4 0  9993,2 52133  53.2167 232.4866 0002848  50.8961 309.2284 15.08833967 45953,6917.899,95.438,541.734,537.794,0.0
52133.0,STARLINK-3707,PAYLOAD,2023-01-05 15:57:57,15.08833559,0.0002554,53.2174,232.1901,52.0427,308.0796,-0.00011311,-2.088e-05,0.0,0 STARLINK-3707,1 52133U 22029AX  23005.66524795 -.00002088  00000-0 -11311-3 0  9993,2 52133  53.2174 232.1901 0002554  52.0427 308.0796 15.08833559 45966,6917.9,95.438,541.5319999999998,537.998,0.0
